BEIDOU-3S IGSO-1S       
1 40549U 15019A   26160.88590677 -.00000175  00000+0  00000+0 0  9995
2 40549  49.2105 295.5512 0038643 190.9335 182.7618  1.00252007 41003
NAVSTAR 74 (USA 262)    
1 40730U 15033A   26160.24350194 -.00000032  00000+0  00000+0 0  9993
2 40730  53.9888 267.4142 0115035  30.2017 330.4770  2.00556613 79830
BEIDOU-3S M2S           
1 40748U 15037A   26159.19519565 -.00000056  00000+0  00000+0 0  9993
2 40748  54.8799 302.3560 0007945 261.5616  98.3402  1.86232387 73958
BEIDOU-3S M1S           
1 40749U 15037B   26159.94058318 -.00000058  00000+0  00000+0 0  9993
2 40749  54.8752 302.3181 0003612  60.8585 299.1687  1.86254827 73970
GSAT0205 (GALILEO 9)    
1 40889U 15045A   26144.30399159 -.00000014  00000+0  00000+0 0  9994
2 40889  54.9357 222.4171 0006405 263.0112  96.9692  1.67409242 66562
GSAT0206 (GALILEO 10)   
1 40890U 15045B   26160.24511773  .00000046  00000+0  00000+0 0  9999
2 40890  54.9469 221.8239 0001697 338.7215  21.3537  1.70473930 66905
BEIDOU-3S IGSO-2S       
1 40938U 15053A   26160.87932326 -.00000151  00000+0  00000+0 0  9999
2 40938  49.2333 258.8715 0065277 191.8328 219.6473  1.00261220 39283
NAVSTAR 75 (USA 265)    
1 41019U 15062A   26160.29992778 -.00000064  00000+0  00000+0 0  9996
2 41019  56.9540  31.1152 0111654 231.1327 127.9172  2.00566961 77677
GSAT-15                 
1 41028U 15065A   26160.36036365 -.00000241  00000+0  00000+0 0  9995
2 41028   0.0513 110.7137 0003923 328.9417  41.3237  1.00270540 38726
GSAT0209 (GALILEO 12)   
1 41174U 15079A   26159.82656492  .00000025  00000+0  00000+0 0  9999
2 41174  55.8226 101.4914 0005417 340.1691  19.7832  1.70473747 64637
GSAT0208 (GALILEO 11)   
1 41175U 15079B   26160.04686557  .00000024  00000+0  00000+0 0  9990
2 41175  55.8209 101.4821 0004866 341.4255  18.5295  1.70473566 65059
IRNSS-1E                
1 41241U 16003A   26160.64908404 -.00000299  00000+0  00000+0 0  9991
2 41241  33.2186  59.8594 0017926 179.3195   4.1979  1.00268584 38002
NAVSTAR 76 (USA 266)    
1 41328U 16007A   26158.89450904  .00000008  00000+0  00000+0 0  9999
2 41328  55.5185  89.8281 0096231 247.4008 111.5747  2.00552243 75653
COSMOS 2514 [GLONASS-M] 
1 41330U 16008A   26160.77701432 -.00000035  00000+0  00000+0 0  9999
2 41330  65.0265 313.2609 0010997 197.5271 162.4316  2.13102597 80460
BEIDOU-2 IGSO-6         
1 41434U 16021A   26159.99654288 -.00000154  00000+0  00000+0 0  9999
2 41434  60.2137  38.1225 0057118 231.5364  79.8340  1.00261117 37396
IRNSS-1G                
1 41469U 16027A   26160.79519771 -.00000317  00000+0  00000+0 0  9991
2 41469   5.1800  97.6441 0007507 353.1311 223.2366  1.00269826 37106
GSAT0211 (GALILEO 14)   
1 41549U 16030A   26158.99767407  .00000043  00000+0  00000+0 0  9999
2 41549  55.0982 221.9480 0002777 325.1627  34.9006  1.70473969 62511
GSAT0210 (GALILEO 13)   
1 41550U 16030B   26159.84153038  .00000045  00000+0  00000+0 0  9997
2 41550  55.0968 221.9227 0003068 229.8535 130.2012  1.70474105 62529
BEIDOU-2 G7             
1 41586U 16037A   26160.93402646 -.00000336  00000+0  00000+0 0  9991
2 41586   1.7009  69.2572 0007175   3.0833 272.7380  1.00268200  6814
EUTELSAT 117 WEST B     
1 41589U 16038B   26160.03340278  .00000004  00000+0  00000+0 0  9999
2 41589   0.0422 159.6913 0000345 138.3370 214.4010  1.00276750 36580
GSAT0207 (GALILEO 15)   
1 41859U 16069A   26160.11980086  .00000023  00000+0  00000+0 0  9990
2 41859  55.4940 101.3095 0005423 327.7880  32.1516  1.70473627 59261
GSAT0212 (GALILEO 16)   
1 41860U 16069B   26159.97323815  .00000024  00000+0  00000+0 0  9996
2 41860  55.4916 101.3087 0004676 355.4065   4.5623  1.70473849 59515
GSAT0213 (GALILEO 17)   
1 41861U 16069C   26160.34048786  .00000022  00000+0  00000+0 0  9999
2 41861  55.4937 101.3064 0005123 311.5883  48.3399  1.70474169 59380
GSAT0214 (GALILEO 18)   
1 41862U 16069D   26159.90009922  .00000024  00000+0  00000+0 0  9991
2 41862  55.4924 101.3112 0004328 318.2384  41.7019  1.70473875 59500
SES-15                  
1 42709U 17026A   26159.53201694  .00000076  00000+0  00000+0 0  9992
2 42709   0.0197 332.0701 0000516  88.0806 259.1449  1.00270105  7343
QZS-2 (MICHIBIKI-2)     
1 42738U 17028A   26160.53939596 -.00000147  00000+0  00000+0 0  9997
2 42738  39.4388 243.2674 0760581 269.1776  81.0235  1.00285994  7547
QZS-3 (MICHIBIKI-3)     
1 42917U 17048A   26160.79476438 -.00000331  00000+0  00000+0 0  9992
2 42917   0.0574 178.0004 0002626 269.8228 223.4719  1.00268774 32181
COSMOS 2522 [GLONASS-M] 
1 42939U 17055A   26160.14556870  .00000105  00000+0  00000+0 0  9990
2 42939  64.0782 192.1582 0010681 240.1429 119.8211  2.13102030 67808
QZS-4 (MICHIBIKI-4)     
1 42965U 17062A   26160.36764368 -.00000311  00000+0  00000+0 0  9994
2 42965  40.1130 343.5833 0745074 271.5991 272.5339  1.00253241 31729
BEIDOU-3 M1             
1 43001U 17069A   26160.07869186 -.00000046  00000+0  00000+0 0  9990
2 43001  56.6846  63.3526 0010584 324.9280  35.0271  1.86231370 58457
BEIDOU-3 M2             
1 43002U 17069B   26160.55436370 -.00000048  00000+0  00000+0 0  9991
2 43002  56.6845  63.3724 0009305 348.6077  11.3951  1.86231030 58458
